H1 CPF  1  MCC 2022 11 24 14  8281 larets
H2  0304206 5557    27944 2022 11 23 23 45 00 2022 11 28 23 57 00   180 1 1  0 0 0
H9
10 0 59908 50940.000000 0      4824147.773      -633716.191     -5126818.491
10 0 59908 51120.000000 0      3746682.599      -824602.664     -5938817.293
10 0 59908 51300.000000 0      2529567.894      -955567.271     -6534609.865
10 0 59908 51480.000000 0      1218629.095     -1018871.810     -6892914.619
10 0 59908 51660.000000 0      -136945.246     -1010462.451     -7001031.646
10 0 59908 51840.000000 0     -1486425.013      -930164.433     -6855228.973
10 0 59908 52020.000000 0     -2779390.965      -781697.500     -6460840.353
10 0 59908 52200.000000 0     -3967566.796      -572512.903     -5832075.925
10 0 59908 52380.000000 0     -5006582.749      -313458.638     -4991557.262
10 0 59908 52560.000000 0     -5857627.231       -18282.235     -3969573.091
10 0 59908 52740.000000 0     -6488926.639       297012.736     -2803062.884
10 0 59908 52920.000000 0     -6876992.561       614935.619     -1534341.127
10 0 59908 53100.000000 0     -7007572.048       917371.122      -209594.107
10 0 59908 53280.000000 0     -6876241.537      1186492.975      1122806.038
10 0 59908 53460.000000 0     -6488601.763      1405683.594      2414092.750
10 0 59908 53640.000000 0     -5860065.200      1560412.303      3616929.913
10 0 59908 53820.000000 0     -5015233.176      1639023.022      4687189.406
10 0 59908 54000.000000 0     -3986897.415      1633389.910      5585594.995
10 0 59908 54180.000000 0     -2814726.068      1539409.392      6279169.338
10 0 59908 54360.000000 0     -1543693.808      1357306.627      6742439.833
10 0 59908 54540.000000 0      -222319.990      1091740.976      6958357.313
10 0 59908 54720.000000 0      1099201.689       751705.665      6918904.335
10 0 59908 54900.000000 0      2370917.327       350225.862      6625391.246
10 0 59908 55080.000000 0      3545012.821       -96136.257      6088431.934
10 0 59908 55260.000000 0      4577639.881      -567956.222      5327593.697
10 0 59908 55440.000000 0      5430600.396     -1043779.385      4370719.432
10 0 59908 55620.000000 0      6072823.591     -1501078.391      3252935.477
10 0 59908 55800.000000 0      6481570.712     -1917295.807      2015365.614
10 0 59908 55980.000000 0      6643302.891     -2270921.048       703592.034
10 0 59908 56160.000000 0      6554164.119     -2542547.207      -634075.645
10 0 59908 56340.000000 0      6220048.695     -2715849.347     -1948449.692
10 0 59908 56520.000000 0      5656247.606     -2778430.144     -3191340.737
10 0 59908 56700.000000 0      4886700.999     -2722487.625     -4317368.257
10 0 59908 56880.000000 0      3942910.851     -2545276.324     -5285626.467
10 0 59908 57060.000000 0      2862575.082     -2249343.868     -6061141.134
10 0 59908 57240.000000 0      1688025.511     -1842537.750     -6616065.424
10 0 59908 57420.000000 0       464546.292     -1337790.360     -6930600.727
10 0 59908 57600.000000 0      -761366.475      -752693.619     -6993622.416
10 0 59908 57780.000000 0     -1943736.933      -108885.235     -6803012.138
10 0 59908 57960.000000 0     -3038786.906       568737.122     -6365703.186
10 0 59908 58140.000000 0     -4006511.226      1252951.097     -5697442.197
10 0 59908 58320.000000 0     -4812115.721      1915268.548     -4822275.740
10 0 59908 58500.000000 0     -5427277.824      2527090.821     -3771757.515
10 0 59908 58680.000000 0     -5831177.988      3060919.054     -2583880.629
10 0 59908 58860.000000 0     -6011258.685      3491567.690     -1301759.961
10 0 59908 59040.000000 0     -5963670.115      3797329.616        27905.493
10 0 59908 59220.000000 0     -5693368.277      3961031.139      1356539.541
10 0 59908 59400.000000 0     -5213847.885      3970916.688      2635496.794
10 0 59908 59580.000000 0     -4546517.133      3821313.615      3817884.528
10 0 59908 59760.000000 0     -3719750.496      3513042.162      4860319.961
10 0 59908 59940.000000 0     -2767666.401      3053547.157      5724545.452
10 0 59908 60120.000000 0     -1728692.164      2456748.838      6378838.679
10 0 59908 60300.000000 0      -643984.056      1742617.441      6799166.210
10 0 59908 60480.000000 0       444221.384       936492.666      6970044.038
10 0 59908 60660.000000 0      1494259.366        68176.439      6885095.036
10 0 59908 60840.000000 0      2466639.855      -829171.322      6547290.013
10 0 59908 61020.000000 0      3325547.269     -1720302.065      5968867.029
10 0 59908 61200.000000 0      4040189.466     -2569271.827      5170922.919
10 0 59908 61380.000000 0      4585943.927     -3340908.470      4182677.859
10 0 59908 61560.000000 0      4945254.571     -4002297.086      3040429.409
10 0 59908 61740.000000 0      5108239.186     -4524216.694      1786216.750
10 0 59908 61920.000000 0      5072969.062     -4882452.792       466239.779
10 0 59908 62100.000000 0      4845403.605     -5058918.705      -870898.375
10 0 59908 62280.000000 0      4438984.446     -5042523.475     -2176049.317
10 0 59908 62460.000000 0      3873910.233     -4829737.771     -3401390.486
10 0 59908 62640.000000 0      3176135.553     -4424832.303     -4502217.726
10 0 59908 62820.000000 0      2376155.576     -3839784.539     -5438580.880
10 0 59908 63000.000000 0      1507645.093     -3093867.814     -6176695.297
10 0 59908 63180.000000 0       606028.391     -2212961.190     -6690089.263
10 0 59908 63360.000000 0      -292961.179     -1228613.016     -6960472.883
10 0 59908 63540.000000 0     -1154673.274      -176895.559     -6978309.735
10 0 59908 63720.000000 0     -1946838.513       902901.517     -6743097.017
10 0 59908 63900.000000 0     -2640740.427      1969701.920     -6263359.769
10 0 59908 64080.000000 0     -3212228.181      2982161.507     -5556365.344
10 0 59908 64260.000000 0     -3642549.176      3900237.558     -4647561.034
10 0 59908 64440.000000 0     -3918976.175      4686761.448     -3569729.825
10 0 59908 64620.000000 0     -4035196.525      5308951.780     -2361873.337
10 0 59908 64800.000000 0     -3991447.307      5739804.683     -1067853.752
10 0 59908 64980.000000 0     -3794387.886      5959300.249       265174.680
10 0 59908 65160.000000 0     -3456703.211      5955351.981      1588493.701
10 0 59908 65340.000000 0     -2996452.155      5724444.806      2853637.760
10 0 59908 65520.000000 0     -2436183.372      5271915.124      4014215.925
10 0 59908 65700.000000 0     -1801872.813      4611859.034      5027646.104
10 0 59908 65880.000000 0     -1121739.906      3766680.758      5856736.347
10 0 59908 66060.000000 0      -424998.717      2766300.456      6471051.574
10 0 59908 66240.000000 0       259393.325      1647060.943      6848015.925
10 0 59908 66420.000000 0       903936.928       450384.299      6973725.140
10 0 59908 66600.000000 0      1483697.930      -778773.893      6843448.878
10 0 59908 66780.000000 0      1977278.563     -1993619.362      6461816.613
10 0 59908 66960.000000 0      2367621.317     -3147313.218      5842678.472
10 0 59908 67140.000000 0      2642617.506     -4194804.226      5008636.970
10 0 59908 67320.000000 0      2795495.767     -5094629.418      3990253.533
10 0 59908 67500.000000 0      2824977.403     -5810612.039      2824947.451
10 0 59908 67680.000000 0      2735186.224     -6313379.743      1555613.102
10 0 59908 67860.000000 0      2535312.883     -6581620.747       229005.195
10 0 59908 68040.000000 0      2239054.413     -6603015.687     -1106037.956
10 0 59908 68220.000000 0      1863853.154     -6374792.524     -2400465.080
10 0 59908 68400.000000 0      1429973.297     -5903867.115     -3606878.486
10 0 59908 68580.000000 0       959472.738     -5206567.284     -4681305.826
10 0 59908 68760.000000 0       475134.221     -4307973.080     -5584795.926
10 0 59908 68940.000000 0         -593.204     -3240924.588     -6284786.353
10 0 59908 69120.000000 0      -446592.721     -2044751.203     -6756203.797
10 0 59908 69300.000000 0      -843976.470      -763785.794     -6982276.546
10 0 59908 69480.000000 0     -1176848.724       554276.415     -6955055.789
10 0 59908 69660.000000 0     -1432913.813      1860120.419     -6675645.101
10 0 59908 69840.000000 0     -1603913.228      3104604.671     -6154145.571
10 0 59908 70020.000000 0     -1685882.436      4240563.411     -5409323.267
10 0 59908 70200.000000 0     -1679221.211      5224570.917     -4467995.266
10 0 59908 70380.000000 0     -1588574.820      6018609.995     -3364135.685
10 0 59908 70560.000000 0     -1422526.189      6591576.328     -2137713.366
10 0 59908 70740.000000 0     -1193109.159      6920554.861      -833291.622
10 0 59908 70920.000000 0      -915161.911      6991802.825       501572.945
10 0 59908 71100.000000 0      -605547.411      6801384.360      1818077.261
10 0 59908 71280.000000 0      -282279.089      6355402.207      3067998.000
10 0 59908 71460.000000 0        36400.906      5669806.974      4205497.342
10 0 59908 71640.000000 0       332942.295      4769810.775      5188836.222
10 0 59908 71820.000000 0       591362.967      3688915.209      5981928.429
10 0 59908 72000.000000 0       798036.088      2467617.986      6555656.881
10 0 59908 72180.000000 0       942348.984      1151859.208      6888929.634
10 0 59908 72360.000000 0      1017207.331      -208732.892      6969438.201
10 0 59908 72540.000000 0      1019365.604     -1562725.235      6794104.568
10 0 59908 72720.000000 0       949569.908     -2858835.575      6369211.900
10 0 59908 72900.000000 0       812506.356     -4047898.083      5710204.817
10 0 59908 73080.000000 0       616556.100     -5084762.848      4841155.905
10 0 59908 73260.000000 0       373370.796     -5930059.235      3793920.036
10 0 59908 73440.000000 0        97279.895     -6551765.538      2606986.595
10 0 59908 73620.000000 0      -195447.225     -6926498.695      1324052.861
10 0 59908 73800.000000 0      -487446.899     -7040455.785        -7622.692
99
